IRIDIUM 57              
1 25273U 98019B   24199.61291217  .00000882  00000+0  30119-3 0  9994
2 25273  86.3957 285.3772 0002230  94.2286 265.9166 14.35286433376786
IRIDIUM 63              
1 25286U 98021B   24199.55522263  .00000709  00000+0  23812-3 0  9992
2 25286  86.3978 222.3022 0002093  90.9374 269.2063 14.35833831375816
IRIDIUM 69              
1 25319U 98026A   24199.60381748  .00001077  00000+0  33551-3 0  9991
2 25319  86.3962 236.5751 0004268  69.3774 290.7883 14.40084442374890
IRIDIUM 71              
1 25320U 98026B   24199.59730438  .00000947  00000+0  29212-3 0  9999
2 25320  86.3963 231.3331 0004380 100.8075 259.3617 14.40391460375416
IRIDIUM 73              
1 25344U 98032C   24199.51494902  .00001430  00000+0  35951-3 0  9992
2 25344  86.4445 188.7733 0002865  81.2777 278.8752 14.50633935382024
IRIDIUM 82              
1 25467U 98051A   24199.60989982  .00028361  00000+0  13734-2 0  9992
2 25467  86.3747 271.3256 0126920 108.9003 252.6045 15.11488725373085
